{"type": "FeatureCollection", "features": [ {"type": "Feature", "properties": {"norad_id": 58662, "name": "TIANMU-1 21", "group": "weather", "lat": 59.40413410723882, "lon": 79.50305456487352, "alt_km": 468.69781240460543, "timestamp": "2025-12-04T21:36:15.517070+00:00", "meta": {"OBJECT_NAME": "TIANMU-1 21", "OBJECT_ID": "2023-208C", "EPOCH": "2025-12-04T15:04:07.984416", "MEAN_MOTION": 15.31284896, "ECCENTRICITY": 0.00059416, "INCLINATION": 97.4382, "RA_OF_ASC_NODE": 91.9947, "ARG_OF_PERICENTER": 293.9329, "MEAN_ANOMALY": 66.1289, "EPHEMERIS_TYPE": 0, "CLASSIFICATION_TYPE": "U", "NORAD_CAT_ID": 58662, "ELEMENT_SET_NO": 999, "REV_AT_EPOCH": 10775, "BSTAR": 0.00072297119, "MEAN_MOTION_DOT": 0.00021817, "MEAN_MOTION_DDOT": 0}, "tle": {"line1": "1 58662U 23208C   25338.62787019  .00021817  00000+0  72297-3 0  9991", "line2": "2 58662  97.4382  91.9947 0005941 293.9329  66.1289 15.31284896107756"}}, "geometry": {"type": "Point", "coordinates": [79.50305456487352, 59.40413410723882]}}, {"type": "Feature", "properties": {"norad_id": 58663, "name": "TIANMU-1 22", "group": "weather", "lat": 81.97271947430278, "lon": -22.08700944126342, "alt_km": 477.4192923707624, "timestamp": "2025-12-04T21:36:15.517081+00:00", "meta": {"OBJECT_NAME": "TIANMU-1 22", "OBJECT_ID": "2023-208D", "EPOCH": "2025-12-04T14:54:33.948000", "MEAN_MOTION": 15.27391449, "ECCENTRICITY": 0.00030102, "INCLINATION": 97.439, "RA_OF_ASC_NODE": 89.7389, "ARG_OF_PERICENTER": 325.5522, "MEAN_ANOMALY": 34.5522, "EPHEMERIS_TYPE": 0, "CLASSIFICATION_TYPE": "U", "NORAD_CAT_ID": 58663, "ELEMENT_SET_NO": 999, "REV_AT_EPOCH": 10759, "BSTAR": 0.00066654566, "MEAN_MOTION_DOT": 0.00017826, "MEAN_MOTION_DDOT": 0}, "tle": {"line1": "1 58663U 23208D   25338.62122625  .00017826  00000+0  66655-3 0  9994", "line2": "2 58663  97.4390  89.7389 0003010 325.5522  34.5522 15.27391449107592"}}, "geometry": {"type": "Point", "coordinates": [-22.08700944126342, 81.97271947430278]}}, {"type": "Feature", "properties": {"norad_id": 58700, "name": "TIANMU-1 15", "group": "weather", "lat": -55.21741822697492, "lon": 171.2757860978948, "alt_km": 495.80271955477747, "timestamp": "2025-12-04T21:36:15.517091+00:00", "meta": {"OBJECT_NAME": "TIANMU-1 15", "OBJECT_ID": "2024-004A", "EPOCH": "2025-12-04T15:32:52.368576", "MEAN_MOTION": 15.24513367, "ECCENTRICITY": 0.00056851, "INCLINATION": 97.4623, "RA_OF_ASC_NODE": 160.1467, "ARG_OF_PERICENTER": 331.2787, "MEAN_ANOMALY": 28.8137, "EPHEMERIS_TYPE": 0, "CLASSIFICATION_TYPE": "U", "NORAD_CAT_ID": 58700, "ELEMENT_SET_NO": 999, "REV_AT_EPOCH": 10611, "BSTAR": 0.00059091095, "MEAN_MOTION_DOT": 0.00014482, "MEAN_MOTION_DDOT": 0}, "tle": {"line1": "1 58700U 24004A   25338.64782834  .00014482  00000+0  59091-3 0  9998", "line2": "2 58700  97.4623 160.1467 0005685 331.2787  28.8137 15.24513367106118"}}, "geometry": {"type": "Point", "coordinates": [171.2757860978948, -55.21741822697492]}}, {"type": "Feature", "properties": {"norad_id": 58701, "name": "TIANMU-1 16", "group": "weather", "lat": 32.60547776807867, "lon": 154.99050127833738, "alt_km": 489.5907146790614, "timestamp": "2025-12-04T21:36:15.517101+00:00", "meta": {"OBJECT_NAME": "TIANMU-1 16", "OBJECT_ID": "2024-004B", "EPOCH": "2025-12-04T10:25:53.796288", "MEAN_MOTION": 15.24253221, "ECCENTRICITY": 0.00051101, "INCLINATION": 97.4569, "RA_OF_ASC_NODE": 159.3334, "ARG_OF_PERICENTER": 331.1239, "MEAN_ANOMALY": 28.9715, "EPHEMERIS_TYPE": 0, "CLASSIFICATION_TYPE": "U", "NORAD_CAT_ID": 58701, "ELEMENT_SET_NO": 999, "REV_AT_EPOCH": 10608, "BSTAR": 8.3687681e-05, "MEAN_MOTION_DOT": 1.97e-05, "MEAN_MOTION_DDOT": 0}, "tle": {"line1": "1 58701U 24004B   25338.43465042  .00001970  00000+0  83688-4 0  9993", "line2": "2 58701  97.4569 159.3334 0005110 331.1239  28.9715 15.24253221106084"}}, "geometry": {"type": "Point", "coordinates": [154.99050127833738, 32.60547776807867]}}, {"type": "Feature", "properties": {"norad_id": 58702, "name": "TIANMU-1 17", "group": "weather", "lat": 62.740728135760854, "lon": -5.066197360552575, "alt_km": 489.0660300128584, "timestamp": "2025-12-04T21:36:15.517114+00:00", "meta": {"OBJECT_NAME": "TIANMU-1 17", "OBJECT_ID": "2024-004C", "EPOCH": "2025-12-04T14:47:39.156288", "MEAN_MOTION": 15.24309612, "ECCENTRICITY": 0.00042113, "INCLINATION": 97.4595, "RA_OF_ASC_NODE": 159.9193, "ARG_OF_PERICENTER": 334.177, "MEAN_ANOMALY": 25.9256, "EPHEMERIS_TYPE": 0, "CLASSIFICATION_TYPE": "U", "NORAD_CAT_ID": 58702, "ELEMENT_SET_NO": 999, "REV_AT_EPOCH": 10610, "BSTAR": 0.00055526051, "MEAN_MOTION_DOT": 0.00013517, "MEAN_MOTION_DDOT": 0}, "tle": {"line1": "1 58702U 24004C   25338.61642542  .00013517  00000+0  55526-3 0  9995", "line2": "2 58702  97.4595 159.9193 0004211 334.1770  25.9256 15.24309612106103"}}, "geometry": {"type": "Point", "coordinates": [-5.066197360552575, 62.740728135760854]}}, {"type": "Feature", "properties": {"norad_id": 58703, "name": "TIANMU-1 18", "group": "weather", "lat": -27.851295032082092, "lon": -23.575397534888594, "alt_km": 500.21133651743366, "timestamp": "2025-12-04T21:36:15.517124+00:00", "meta": {"OBJECT_NAME": "TIANMU-1 18", "OBJECT_ID": "2024-004D", "EPOCH": "2025-12-04T15:58:04.334016", "MEAN_MOTION": 15.24302008, "ECCENTRICITY": 0.00035933, "INCLINATION": 97.4612, "RA_OF_ASC_NODE": 160.1616, "ARG_OF_PERICENTER": 334.9945, "MEAN_ANOMALY": 25.1118, "EPHEMERIS_TYPE": 0, "CLASSIFICATION_TYPE": "U", "NORAD_CAT_ID": 58703, "ELEMENT_SET_NO": 999, "REV_AT_EPOCH": 10611, "BSTAR": 0.00057014379, "MEAN_MOTION_DOT": 0.00013878, "MEAN_MOTION_DDOT": 0}, "tle": {"line1": "1 58703U 24004D   25338.66532794  .00013878  00000+0  57014-3 0  9992", "line2": "2 58703  97.4612 160.1616 0003593 334.9945  25.1118 15.24302008106114"}}, "geometry": {"type": "Point", "coordinates": [-23.575397534888594, -27.851295032082092]}}, {"type": "Feature", "properties": {"norad_id": 58990, "name": "INSAT-3DS", "group": "weather", "lat": 0.022301683483386677, "lon": 120.07676806159989, "alt_km": 35792.69841325419, "timestamp": "2025-12-04T21:36:15.517136+00:00", "meta": {"OBJECT_NAME": "INSAT-3DS", "OBJECT_ID": "2024-033A", "EPOCH": "2025-12-04T14:07:02.364384", "MEAN_MOTION": 1.00268719, "ECCENTRICITY": 0.00017583, "INCLINATION": 0.0119, "RA_OF_ASC_NODE": 346.2482, "ARG_OF_PERICENTER": 274.3669, "MEAN_ANOMALY": 106.8853, "EPHEMERIS_TYPE": 0, "CLASSIFICATION_TYPE": "U", "NORAD_CAT_ID": 58990, "ELEMENT_SET_NO": 999, "REV_AT_EPOCH": 4511, "BSTAR": 0, "MEAN_MOTION_DOT": 0, "MEAN_MOTION_DDOT": 0}, "tle": {"line1": "1 58990U 24033A   25338.58822181  .00000000  00000+0  00000+0 0  9997", "line2": "2 58990   0.0119 346.2482 0001758 274.3669 106.8853  1.00268719 45117"}}, "geometry": {"type": "Point", "coordinates": [120.07676806159989, 0.022301683483386677]}}, {"type": "Feature", "properties": {"norad_id": 59051, "name": "METEOR-M2 4", "group": "weather", "lat": 15.893519022118197, "lon": -66.55914488082853, "alt_km": 812.5240225579955, "timestamp": "2025-12-04T21:36:15.517147+00:00", "meta": {"OBJECT_NAME": "METEOR-M2 4", "OBJECT_ID": "2024-039A", "EPOCH": "2025-12-04T14:46:33.832704", "MEAN_MOTION": 14.22399331, "ECCENTRICITY": 0.00074776, "INCLINATION": 98.6754, "RA_OF_ASC_NODE": 295.6525, "ARG_OF_PERICENTER": 21.2209, "MEAN_ANOMALY": 338.9278, "EPHEMERIS_TYPE": 0, "CLASSIFICATION_TYPE": "U", "NORAD_CAT_ID": 59051, "ELEMENT_SET_NO": 999, "REV_AT_EPOCH": 9160, "BSTAR": 6.1654253e-05, "MEAN_MOTION_DOT": 9.4e-07, "MEAN_MOTION_DDOT": 0}, "tle": {"line1": "1 59051U 24039A   25338.61566936  .00000094  00000+0  61654-4 0  9999", "line2": "2 59051  98.6754 295.6525 0007477  21.2209 338.9278 14.22399331 91609"}}, "geometry": {"type": "Point", "coordinates": [-66.55914488082853, 15.893519022118197]}}, {"type": "Feature", "properties": {"norad_id": 60133, "name": "GOES 19", "group": "weather", "lat": -4.30303084279748e-06, "lon": -37.163404528205206, "alt_km": 35781.322279080225, "timestamp": "2025-12-04T21:36:15.517158+00:00", "meta": {"OBJECT_NAME": "GOES 19", "OBJECT_ID": "2024-119A", "EPOCH": "2025-12-04T11:39:20.571264", "MEAN_MOTION": 1.00270587, "ECCENTRICITY": 0.00013442, "INCLINATION": 0.0089, "RA_OF_ASC_NODE": 79.6571, "ARG_OF_PERICENTER": 218.516, "MEAN_ANOMALY": 235.0408, "EPHEMERIS_TYPE": 0, "CLASSIFICATION_TYPE": "U", "NORAD_CAT_ID": 60133, "ELEMENT_SET_NO": 999, "REV_AT_EPOCH": 501, "BSTAR": 0, "MEAN_MOTION_DOT": -2.33e-06, "MEAN_MOTION_DDOT": 0}, "tle": {"line1": "1 60133U 24119A   25338.48565476 -.00000233  00000+0  00000+0 0  9993", "line2": "2 60133   0.0089  79.6571 0001344 218.5160 235.0408  1.00270587  5010"}}, "geometry": {"type": "Point", "coordinates": [-37.163404528205206, -4.30303084279748e-06]}}, {"type": "Feature", "properties": {"norad_id": 65815, "name": "FENGYUN 3H", "group": "weather", "lat": -34.15702692154018, "lon": -75.40534184309868, "alt_km": 831.9751828363997, "timestamp": "2025-12-04T21:36:15.517169+00:00", "meta": {"OBJECT_NAME": "FENGYUN 3H", "OBJECT_ID": "2025-219A", "EPOCH": "2025-12-04T15:00:07.586784", "MEAN_MOTION": 14.19901143, "ECCENTRICITY": 6.2e-05, "INCLINATION": 98.6572, "RA_OF_ASC_NODE": 278.3922, "ARG_OF_PERICENTER": 73.6014, "MEAN_ANOMALY": 286.5231, "EPHEMERIS_TYPE": 0, "CLASSIFICATION_TYPE": "U", "NORAD_CAT_ID": 65815, "ELEMENT_SET_NO": 999, "REV_AT_EPOCH": 977, "BSTAR": 0.00011439544, "MEAN_MOTION_DOT": 2e-06, "MEAN_MOTION_DDOT": 0}, "tle": {"line1": "1 65815U 25219A   25338.62508781  .00000200  00000+0  11440-3 0  9996", "line2": "2 65815  98.6572 278.3922 0000620  73.6014 286.5231 14.19901143  9779"}}, "geometry": {"type": "Point", "coordinates": [-75.40534184309868, -34.15702692154018]}}]}